CTC2_L_00657001-01
1 10000U 26469ND  26075.70050926  .00000000  00000+0  00000-0 0  9996
2 10000  55.0000   0.0000 0000000   0.0000   0.0000  3.48458077    10
CTC2_L_00657001-02
1 10001U 24060ZE  26075.70050926  .00000000  00000+0  00000-0 0  9992
2 10001  55.0000   0.0000 0000000   0.0000  36.0000  3.48458077    10
CTC2_L_00657001-03
1 10002U 26656QH  26075.70050926  .00000000  00000+0  00000-0 0  9996
2 10002  55.0000   0.0000 0000000   0.0000  72.0000  3.48458077    11
CTC2_L_00657001-04
1 10003U 24505MG  26075.70050926  .00000000  00000+0  00000-0 0  9998
2 10003  55.0000   0.0000 0000000   0.0000 108.0000  3.48458077    12
CTC2_L_00657001-05
1 10004U 23501BI  26075.70050926  .00000000  00000+0  00000-0 0  9994
2 10004  55.0000   0.0000 0000000   0.0000 144.0000  3.48458077    13
CTC2_L_00657001-06
1 10005U 25070CJ  26075.70050926  .00000000  00000+0  00000-0 0  9998
2 10005  55.0000   0.0000 0000000   0.0000 180.0000  3.48458077    14
CTC2_L_00657001-07
1 10006U 26286WO  26075.70050926  .00000000  00000+0  00000-0 0  9999
2 10006  55.0000   0.0000 0000000   0.0000 216.0000  3.48458077    15
CTC2_L_00657001-08
1 10007U 22706LG  26075.70050926  .00000000  00000+0  00000-0 0  9993
2 10007  55.0000   0.0000 0000000   0.0000 252.0000  3.48458077    16
CTC2_L_00657001-09
1 10008U 25525AW  26075.70050926  .00000000  00000+0  00000-0 0  9996
2 10008  55.0000   0.0000 0000000   0.0000 288.0000  3.48458077    16
CTC2_L_00657001-10
1 10009U 25727FL  26075.70050926  .00000000  00000+0  00000-0 0  9991
2 10009  55.0000   0.0000 0000000   0.0000 324.0000  3.48458077    18
CTC2_L_00657002-01
1 10010U 24181KZ  26075.70050926  .00000000  00000+0  00000-0 0  9996
2 10010  55.0000  30.0000 0000000   0.0000  12.0000  3.48458077    17
CTC2_L_00657002-02
1 10011U 23251QD  26075.70050926  .00000000  00000+0  00000-0 0  9994
2 10011  55.0000  30.0000 0000000   0.0000  48.0000  3.48458077    17
CTC2_L_00657002-03
1 10012U 25145SQ  26075.70050926  .00000000  00000+0  00000-0 0  9999
2 10012  55.0000  30.0000 0000000   0.0000  84.0000  3.48458077    18
CTC2_L_00657002-04
1 10013U 23783O   26075.70050926  .00000000  00000+0  00000-0 0  9996
2 10013  55.0000  30.0000 0000000   0.0000 120.0000  3.48458077    10
CTC2_L_00657002-05
1 10014U 26952UM  26075.70050926  .00000000  00000+0  00000-0 0  9998
2 10014  55.0000  30.0000 0000000   0.0000 156.0000  3.48458077    10
CTC2_L_00657002-06
1 10015U 25965LA  26075.70050926  .00000000  00000+0  00000-0 0  9992
2 10015  55.0000  30.0000 0000000   0.0000 192.0000  3.48458077    11
CTC2_L_00657002-07
1 10016U 25725TN  26075.70050926  .00000000  00000+0  00000-0 0  9997
2 10016  55.0000  30.0000 0000000   0.0000 228.0000  3.48458077    12
CTC2_L_00657002-08
1 10017U 22659PA  26075.70050926  .00000000  00000+0  00000-0 0  9991
2 10017  55.0000  30.0000 0000000   0.0000 264.0000  3.48458077    13
CTC2_L_00657002-09
1 10018U 23216GI  26075.70050926  .00000000  00000+0  00000-0 0  9992
2 10018  55.0000  30.0000 0000000   0.0000 300.0000  3.48458077    15
CTC2_L_00657002-10
1 10019U 25587JE  26075.70050926  .00000000  00000+0  00000-0 0  9996
2 10019  55.0000  30.0000 0000000   0.0000 336.0000  3.48458077    15
CTC2_L_00657003-01
1 10020U 24229UN  26075.70050926  .00000000  00000+0  00000-0 0  9990
2 10020  55.0000  60.0000 0000000   0.0000  24.0000  3.48458077    14
CTC2_L_00657003-02
1 10021U 25265NI  26075.70050926  .00000000  00000+0  00000-0 0  9992
2 10021  55.0000  60.0000 0000000   0.0000  60.0000  3.48458077    15
CTC2_L_00657003-03
1 10022U 24869GQ  26075.70050926  .00000000  00000+0  00000-0 0  9992
2 10022  55.0000  60.0000 0000000   0.0000  96.0000  3.48458077    15
CTC2_L_00657003-04
1 10023U 26226ZZ  26075.70050926  .00000000  00000+0  00000-0 0  9992
2 10023  55.0000  60.0000 0000000   0.0000 132.0000  3.48458077    17
CTC2_L_00657003-05
1 10024U 23240RN  26075.70050926  .00000000  00000+0  00000-0 0  9996
2 10024  55.0000  60.0000 0000000   0.0000 168.0000  3.48458077    17
CTC2_L_00657003-06
1 10025U 24485ZI  26075.70050926  .00000000  00000+0  00000-0 0  9999
2 10025  55.0000  60.0000 0000000   0.0000 204.0000  3.48458077    19
CTC2_L_00657003-07
1 10026U 26979CG  26075.70050926  .00000000  00000+0  00000-0 0  9990
2 10026  55.0000  60.0000 0000000   0.0000 240.0000  3.48458077    10
CTC2_L_00657003-08
1 10027U 26722SJ  26075.70050926  .00000000  00000+0  00000-0 0  9997
2 10027  55.0000  60.0000 0000000   0.0000 276.0000  3.48458077    10
CTC2_L_00657003-09
1 10028U 24538MN  26075.70050926  .00000000  00000+0  00000-0 0  9991
2 10028  55.0000  60.0000 0000000   0.0000 312.0000  3.48458077    12
CTC2_L_00657003-10
1 10029U 23932ZP  26075.70050926  .00000000  00000+0  00000-0 0  9999
2 10029  55.0000  60.0000 0000000   0.0000 348.0000  3.48458077    12
CTC2_L_00657004-01
1 10030U 22807TD  26075.70050926  .00000000  00000+0  00000-0 0  9991
2 10030  55.0000  90.0000 0000000   0.0000  36.0000  3.48458077    11
CTC2_L_00657004-02
1 10031U 24333CY  26075.70050926  .00000000  00000+0  00000-0 0  9998
2 10031  55.0000  90.0000 0000000   0.0000  72.0000  3.48458077    12
CTC2_L_00657004-03
1 10032U 25789TL  26075.70050926  .00000000  00000+0  00000-0 0  9995
2 10032  55.0000  90.0000 0000000   0.0000 108.0000  3.48458077    13
CTC2_L_00657004-04
1 10033U 26498OL  26075.70050926  .00000000  00000+0  00000-0 0  9994
2 10033  55.0000  90.0000 0000000   0.0000 144.0000  3.48458077    14
CTC2_L_00657004-05
1 10034U 24814AC  26075.70050926  .00000000  00000+0  00000-0 0  9995
2 10034  55.0000  90.0000 0000000   0.0000 180.0000  3.48458077    15
CTC2_L_00657004-06
1 10035U 25725RC  26075.70050926  .00000000  00000+0  00000-0 0  9998
2 10035  55.0000  90.0000 0000000   0.0000 216.0000  3.48458077    16
CTC2_L_00657004-07
1 10036U 23978CZ  26075.70050926  .00000000  00000+0  00000-0 0  9997
2 10036  55.0000  90.0000 0000000   0.0000 252.0000  3.48458077    17
CTC2_L_00657004-08
1 10037U 25940MC  26075.70050926  .00000000  00000+0  00000-0 0  9999
2 10037  55.0000  90.0000 0000000   0.0000 288.0000  3.48458077    17
CTC2_L_00657004-09
1 10038U 22376DN  26075.70050926  .00000000  00000+0  00000-0 0  9990
2 10038  55.0000  90.0000 0000000   0.0000 324.0000  3.48458077    19
CTC2_L_00657004-10
1 10039U 26194BW  26075.70050926  .00000000  00000+0  00000-0 0  9993
2 10039  55.0000  90.0000 0000000   0.0000   0.0000  3.48458077    11
CTC2_L_00657005-01
1 10040U 23678MY  26075.70050926  .00000000  00000+0  00000-0 0  9999
2 10040  55.0000 120.0000 0000000   0.0000  48.0000  3.48458077    19
CTC2_L_00657005-02
1 10041U 23137DI  26075.70050926  .00000000  00000+0  00000-0 0  9990
2 10041  55.0000 120.0000 0000000   0.0000  84.0000  3.48458077    10
CTC2_L_00657005-03
1 10042U 22701UK  26075.70050926  .00000000  00000+0  00000-0 0  9997
2 10042  55.0000 120.0000 0000000   0.0000 120.0000  3.48458077    12
CTC2_L_00657005-04
1 10043U 22998W   26075.70050926  .00000000  00000+0  00000-0 0  9996
2 10043  55.0000 120.0000 0000000   0.0000 156.0000  3.48458077    12
CTC2_L_00657005-05
1 10044U 25849ZH  26075.70050926  .00000000  00000+0  00000-0 0  9995
2 10044  55.0000 120.0000 0000000   0.0000 192.0000  3.48458077    13
CTC2_L_00657005-06
1 10045U 23747YM  26075.70050926  .00000000  00000+0  00000-0 0  9991
2 10045  55.0000 120.0000 0000000   0.0000 228.0000  3.48458077    14
CTC2_L_00657005-07
1 10046U 25444EM  26075.70050926  .00000000  00000+0  00000-0 0  9998
2 10046  55.0000 120.0000 0000000   0.0000 264.0000  3.48458077    15
CTC2_L_00657005-08
1 10047U 23202RF  26075.70050926  .00000000  00000+0  00000-0 0  9999
2 10047  55.0000 120.0000 0000000   0.0000 300.0000  3.48458077    17
CTC2_L_00657005-09
1 10048U 23375XG  26075.70050926  .00000000  00000+0  00000-0 0  9991
2 10048  55.0000 120.0000 0000000   0.0000 336.0000  3.48458077    17
CTC2_L_00657005-10
1 10049U 24133SP  26075.70050926  .00000000  00000+0  00000-0 0  9995
2 10049  55.0000 120.0000 0000000   0.0000  12.0000  3.48458077    19
CTC2_L_00657006-01
1 10050U 24858QK  26075.70050926  .00000000  00000+0  00000-0 0  9991
2 10050  55.0000 150.0000 0000000   0.0000  60.0000  3.48458077    17
CTC2_L_00657006-02
1 10051U 22276EY  26075.70050926  .00000000  00000+0  00000-0 0  9994
2 10051  55.0000 150.0000 0000000   0.0000  96.0000  3.48458077    17
CTC2_L_00657006-03
1 10052U 25452KL  26075.70050926  .00000000  00000+0  00000-0 0  9994
2 10052  55.0000 150.0000 0000000   0.0000 132.0000  3.48458077    19
CTC2_L_00657006-04
1 10053U 24110SZ  26075.70050926  .00000000  00000+0  00000-0 0  9995
2 10053  55.0000 150.0000 0000000   0.0000 168.0000  3.48458077    19
CTC2_L_00657006-05
1 10054U 22053JN  26075.70050926  .00000000  00000+0  00000-0 0  9990
2 10054  55.0000 150.0000 0000000   0.0000 204.0000  3.48458077    11
CTC2_L_00657006-06
1 10055U 23565XX  26075.70050926  .00000000  00000+0  00000-0 0  9990
2 10055  55.0000 150.0000 0000000   0.0000 240.0000  3.48458077    12
CTC2_L_00657006-07
1 10056U 25261LP  26075.70050926  .00000000  00000+0  00000-0 0  9996
2 10056  55.0000 150.0000 0000000   0.0000 276.0000  3.48458077    12
CTC2_L_00657006-08
1 10057U 22679ZS  26075.70050926  .00000000  00000+0  00000-0 0  9997
2 10057  55.0000 150.0000 0000000   0.0000 312.0000  3.48458077    14
CTC2_L_00657006-09
1 10058U 25601YB  26075.70050926  .00000000  00000+0  00000-0 0  9996
2 10058  55.0000 150.0000 0000000   0.0000 348.0000  3.48458077    14
CTC2_L_00657006-10
1 10059U 25649HI  26075.70050926  .00000000  00000+0  00000-0 0  9999
2 10059  55.0000 150.0000 0000000   0.0000  24.0000  3.48458077    16
CTC2_L_00657007-01
1 10060U 24333CP  26075.70050926  .00000000  00000+0  00000-0 0  9990
2 10060  55.0000 180.0000 0000000   0.0000  72.0000  3.48458077    14
CTC2_L_00657007-02
1 10061U 26188DX  26075.70050926  .00000000  00000+0  00000-0 0  9991
2 10061  55.0000 180.0000 0000000   0.0000 108.0000  3.48458077    15
